id,category,satellite_name,tle_line1,tle_line2,inclination,eccentricity,period,perigee,apogee,epoch,raan,arg_perigee,mean_anomaly,mean_motion,semi_major_axis,velocity,orbit_type,satellite_age,bstar,rev_num,norad_number,ephemeris_type,intl_designator
7428,active,STARLINK-30439,1 57867U 23144D   25017.38538165  .00000275  00000+0  35432-4 0  9995,2 57867  43.0045  29.9061 0001186 272.8444  87.2263 15.02535230 74998,43.0045,0.0001186,95.83801905263812,558.3961492907129,560.0416576146108,2025-01-17 09:14:56.97456,29.906100000000002,272.8444,15.0253523,15.0253523,6937.218903452662,7.580121876079623,LEO,2,3.5432e-05,7499,57867,0,23144D
7582,active,STARLINK-30560,1 58038U 23156L   25017.56251575  .00001360  00000+0  51631-4 0  9991,2 58038  53.1590 214.8815 0001280  86.7093 273.4056 15.34227867 72508,53.159,0.000128,93.85828734917641,462.4762105482405,464.2275966355601,2025-01-17 13:30:01.3608,214.8815,86.70930000000001,15.34227867,15.34227867,6841.351903591901,7.63304675874047,LEO,2,5.163100000000001e-05,7250,58038,0,23156L
7593,active,STARLINK-30568,1 58051U 23158A   25017.57593902  .00001099  00000+0  96410-4 0  9995,2 58051  43.0030 131.6697 0001683 267.9540  92.1110 15.02533860 70931,43.003,0.0001683,95.83810643708222,558.0555856730707,560.390654975372,2025-01-17 13:49:21.131328,131.6697,267.954,15.0253386,15.0253386,6937.223120324222,7.580119572246758,LEO,2,9.641000000000001e-05,7093,58051,0,23158A
1064,active,IRIDIUM 100,1 42956U 17061B   25017.57540094  .00000020  00000+0  19897-6 0  9991,2 42956  86.3951 240.6169 0001896  94.1610 265.9802 14.34217777380874,86.3951,0.0001896,100.40316213428164,776.4473240946763,779.1608049959514,2025-01-17 13:48:34.641216,240.61690000000002,94.161,265.9802,14.34217777,7155.804064545314,7.463450686157149,LEO,2,1.9897e-07,38087,42956,0,17061B
7612,active,STARLINK-30532,1 58070U 23158V   25017.59912899  .00000597  00000+0  59298-4 0  9993,2 58070  43.0016 130.9816 0001524 275.5871  84.4798 15.02538698 70948,43.0016,0.0001524,95.83779784951669,558.1509984139484,560.2654594821315,2025-01-17 14:22:44.744736,130.9816,275.5871,15.02538698,15.02538698,6937.20822894804,7.580127707965606,LEO,2,5.9298e-05,7094,58070,0,23158V
7617,active,STARLINK-30500,1 58076U 23160B   25016.81211049  .00001209  00000+0  10451-3 0  9993,2 58076  43.0064 185.0218 0002850 259.8783 100.1738 15.02556287 70173,43.0064,0.000285,95.83667596740088,557.1770017193212,561.1311795509837,2025-01-16 19:29:26.346336,185.0218,259.8783,15.02556287,15.02556287,6937.154090635152,7.580157285982728,LEO,3,0.00010451000000000001,7017,58076,0,23160B
7628,active,STARLINK-30557,1 58087U 23160N   25017.50311084  .00000701  00000+0  65679-4 0  9991,2 58087  43.0017 181.6111 0001314 270.0030  90.0662 15.03347312 70318,43.0017,0.0001314,95.78624902613323,555.8092131031754,557.6316576335894,2025-01-17 12:04:28.776576,181.6111,270.003,15.03347312,15.03347312,6934.720435368383,7.581487251024408,LEO,2,6.5679e-05,7031,58087,0,23160N
7633,active,STARLINK-30615,1 58092U 23160T   25017.58334491 -.00019013  00000+0 -13958-2 0  9991,2 58092  43.0005 180.9516 0001287 265.2986 263.0709 15.02547515  5629,43.0005,0.0001287,95.83723547005434,558.2882751990355,560.0739056117063,2025-01-17 14:00:01.000224,180.9516,265.2986,15.02547515,15.02547515,6937.181090405371,7.580142534839475,LEO,2,-0.0013958000000000002,562,58092,0,23160T
7644,active,STARLINK-30589,1 58103U 23161G   25017.21710635  .00002179  00000+0  85695-4 0  9995,2 58103  53.1605 300.1030 0001186  95.5194 264.5942 15.30192375 70651,53.1605,0.0001186,94.10581463654202,474.56202613385267,476.18764664504397,2025-01-17 05:12:37.98864,300.103,95.5194,15.30192375,15.30192375,6853.374836389448,7.626348460844838,LEO,2,8.5695e-05,7065,58103,0,23161G
7648,active,STARLINK-30421,1 58107U 23161L   25017.08868610 -.00000078  00000+0  88566-5 0  9999,2 58107  53.1609 294.3409 0001099  79.7691 280.3436 15.34222405 70726,53.1609,0.0001099,93.85862149497159,462.61627453223355,464.12000724960217,2025-01-17 02:07:42.47904,294.3409,79.7691,15.34222405,15.34222405,6841.368140890918,7.633037700600809,LEO,2,8.856600000000001e-06,7072,58107,0,23161L
7653,active,STARLINK-30593,1 58112U 23161R   25017.06962336  .00000193  00000+0  18638-4 0  9992,2 58112  53.1606 300.7998 0000969  74.6506 285.4601 15.30198119 70638,53.1606,9.69e-05,94.1054613856835,474.6935953922757,476.02177611177376,2025-01-17 01:40:15.458304,300.7998,74.6506,15.30198119,15.30198119,6853.357685752025,7.62635800336848,LEO,2,1.8638e-05,7063,58112,0,23161R
7664,active,STARLINK-30781,1 58123U 23162F   25017.29445723  .00001223  00000+0  10554-3 0  9999,2 58123  43.0018 235.6450 0001086 254.8013 105.2709 15.02540490 69661,43.0018,0.0001086,95.8376835488806,558.4493329731595,559.9560934024639,2025-01-17 07:04:01.104672,235.645,254.80129999999997,15.0254049,15.0254049,6937.202713187812,7.580130721439506,LEO,2,0.00010554,6966,58123,0,23162F
7669,active,STARLINK-30787,1 58128U 23162L   25017.61353018  .00000550  00000+0  55800-4 0  9991,2 58128  43.0018 233.7368 0001497 244.5286 115.5401 15.02542252 69714,43.0018,0.0001497,95.83757116202547,558.1587913437279,560.2357882122869,2025-01-17 14:43:29.007552,233.7368,244.5286,15.02542252,15.02542252,6937.197289778008,7.5801336844622895,LEO,2,5.580000000000001e-05,6971,58128,0,23162L
7680,active,STARLINK-30775,1 58139U 23162X   25017.59361871  .00005094  00000+0  39137-3 0  9998,2 58139  43.0022 234.4312 0000844  69.9597 290.1336 15.02588662 69708,43.0022,8.44e-05,95.83461105604961,558.468956909298,559.6399316994966,2025-01-17 14:14:48.656544,234.4312,69.9597,15.02588662,15.02588662,6937.054444304397,7.580211727832197,LEO,2,0.00039137,6970,58139,0,23162X
7685,active,COSMOS 2570,1 58148U 23165A   25017.59825541  .00000009  00000+0  60435-4 0  9997,2 58148  67.1472 102.5534 0006177 279.2929  80.7457 13.96671922 62630,67.1472,0.0006177,103.10223734847875,900.9805649548398,909.9785756159708,2025-01-17 14:21:29.267424,102.55340000000001,279.2929,13.96671922,13.96671922,7283.479570285405,7.397746320881239,LEO,2,6.043500000000001e-05,6263,58148,0,23165A
7694,active,STARLINK-30829,1 58158U 23166J   25017.22948212  .00001283  00000+0  55443-4 0  9998,2 58158  53.1619 354.2914 0001144  97.0138 263.0993 15.30194380 69416,53.1619,0.0001144,94.10569133053541,474.5848243812552,476.1528751740834,2025-01-17 05:30:27.255168,354.2914,97.0138,15.3019438,15.3019438,6853.368849777669,7.626351791759791,LEO,2,5.5443e-05,6941,58158,0,23166J
7699,active,STARLINK-30763,1 58163U 23166P   25017.19905087  .00000337  00000+0  21201-4 0  9997,2 58163  53.1617 345.7789 0001138 106.8756 253.2372 15.34220635 69524,53.1617,0.0001138,93.8587297778067,462.5948544307457,464.15195101720656,2025-01-17 04:46:37.995168,345.7789,106.8756,15.34220635,15.34220635,6841.373402723976,7.633034765241527,LEO,2,2.1201000000000003e-05,6952,58163,0,23166P
7705,active,STARLINK-30771,1 58169U 23166V   25017.32739492  .00000066  00000+0  14354-4 0  9993,2 58169  53.1613 353.4835 0001318 103.3001 256.8147 15.30201103 69433,53.1613,0.0001318,94.1052778734012,474.4455046934345,476.25204743080394,2025-01-17 07:51:26.921088,353.4835,103.3001,15.30201103,15.30201103,6853.348776062119,7.626362960686796,LEO,2,1.4354e-05,6943,58169,0,23166V
7715,active,STARLINK-30821,1 58181U 23167G   25017.31743814  .00000315  00000+0  38406-4 0  9991,2 58181  43.0015 248.2487 0000935 274.0377  86.0358 15.02535429 68325,43.0015,9.35e-05,95.8380063595825,558.5696610193145,559.8669208397177,2025-01-17 07:37:06.655296,248.24870000000004,274.0377,15.02535429,15.02535429,6937.218290929516,7.580122210723842,LEO,2,3.8406000000000005e-05,6832,58181,0,23167G
7721,active,STARLINK-30760,1 58187U 23167N   25017.04154287 -.00001083  00000+0 -65104-4 0  9997,2 58187  43.0015 249.6172 0000984 262.8139  97.2591 15.02540202 68285,43.0015,9.84e-05,95.83770191860731,558.5209788143311,559.8862204827419,2025-01-17 00:59:49.303968,249.61720000000003,262.8139,15.02540202,15.02540202,6937.2035996485365,7.580130237131363,LEO,2,-6.510399999999999e-05,6828,58187,0,23167N
7730,active,STARLINK-30798,1 58196U 23167X   25017.03499273  .00001244  00000+0  10715-3 0  9997,2 58196  43.0008 250.4280 0001346 264.1527  95.9162 15.02536812 68276,43.0008,0.0001346,95.83791814612793,558.2802850423022,560.147783060268,2025-01-17 00:50:23.371872,250.42800000000003,264.1527,15.02536812,15.02536812,6937.214034051285,7.580124536416268,LEO,2,0.00010715,6827,58196,0,23167X
7566,active,NESS,1 58020U 23155E   25017.16465601  .00016330  00000+0  95293-3 0  9998,2 58020  97.6385  92.5582 0008581 188.1498 171.9594 15.11991734 70056,97.6385,0.0008581,95.23861590105756,524.3355562146726,536.19151809714,2025-01-17 03:57:06.279264,92.5582,188.1498,15.11991734,15.11991734,6908.263537155906,7.595990965099782,LEO,2,0.00095293,7005,58020,0,23155E
7603,active,STARLINK-30579,1 58061U 23158L   25017.60973100  .00000035  00000+0  17639-4 0  9997,2 58061  43.0038 105.7522 0001302 276.1660  83.9034 15.02538024 71236,43.0038,0.0001302,95.83784083989345,558.3070787354291,560.1135282984651,2025-01-17 14:38:00.7584,105.7522,276.166,15.02538024,15.02538024,6937.210303516947,7.580126574549022,LEO,2,1.7639e-05,7123,58061,0,23158L
7757,active,STARLINK-30861,1 58230U 23171A   25017.39719907  .00005211  00000+0  40047-3 0  9998,2 58230  43.0027  28.0756 0001045 271.3639  88.7084 15.02544647 67102,43.0027,0.0001045,95.83741840051958,558.4649816741785,559.9148543670435,2025-01-17 09:31:57.999648,28.0756,271.3639,15.02544647,15.02544647,6937.189918020611,7.580137711949814,LEO,2,0.00040047,6710,58230,0,23171A
7772,active,STARLINK-30849,1 58245U 23171R   25017.36723273  .00000346  00000+0  40687-4 0  9997,2 58245  43.0061  27.8471 0001211 267.5672  92.5032 15.02537792 67105,43.0061,0.0001211,95.83785563777685,558.3709213580069,560.0511138664733,2025-01-17 08:48:48.907872,27.8471,267.5672,15.02537792,15.02537792,6937.21101761224,7.580126184411484,LEO,2,4.0687000000000005e-05,6710,58245,0,23171R
